IRIDIUM 39              
1 25042U 97069D   25168.81931899  .00000452  00000+0  11328-3 0  9992
2 25042  86.3927 210.8603 0015894 309.7994  50.1809 14.49221089449053
IRIDIUM 38              
1 25043U 97069E   25169.21258866  .00000326  00000+0  10102-3 0  9993
2 25043  86.3965 232.7232 0004271  94.0459 266.1228 14.38119182446367
IRIDIUM 42              
1 25077U 97077A   25168.94139090  .00000294  00000+0  93699-4 0  9992
2 25077  86.3966 239.0078 0003033  98.5000 261.6541 14.36353254441304
IRIDIUM 44              
1 25078U 97077B   25168.68537058  .00000323  00000+0  95787-4 0  9993
2 25078  86.3972 221.0409 0003563  63.6747 296.4818 14.40243112443772
IRIDIUM 45              
1 25104U 97082A   25168.91069142  .00012924  00000+0  46262-3 0  9992
2 25104  86.3583  47.5436 0115109 330.2069  29.2651 15.22467964452154
IRIDIUM 24              
1 25105U 97082B   25168.65787619  .00000403  00000+0  11645-3 0  9996
2 25105  86.3902  80.1020 0013637  78.1128 282.1601 14.42100175443287
IRIDIUM 51              
1 25262U 98018A   25168.81080818  .00022750  00000+0  50524-3 0  9993
2 25262  86.3831  55.5252 0083523 246.9921 112.2508 15.39842211447129
IRIDIUM 57              
1 25273U 98019B   25168.45072129  .00000311  00000+0  10046-3 0  9996
2 25273  86.3972 145.1515 0002389  88.1356 272.0114 14.35893848424821
